{
    "links": {
        "self": "http://www.neowsapp.com/rest/v1/neo/54017245?api_key=iIulBulltgU6a56xZRHN4H3l9WmuAYTsLGpBGhQ2"
    },
    "id": "54017245",
    "neo_reference_id": "54017245",
    "name": "(2020 KV4)",
    "designation": "2020 KV4",
    "nasa_jpl_url": "http://ssd.jpl.nasa.gov/sbdb.cgi?sstr=54017245",
    "absolute_magnitude_h": 23.899,
    "estimated_diameter": {
        "kilometers": {
            "estimated_diameter_min": 0.0441321389,
            "estimated_diameter_max": 0.0986824626
        },
        "meters": {
            "estimated_diameter_min": 44.1321389218,
            "estimated_diameter_max": 98.6824626215
        },
        "miles": {
            "estimated_diameter_min": 0.0274224313,
            "estimated_diameter_max": 0.0613184205
        },
        "feet": {
            "estimated_diameter_min": 144.7904866601,
            "estimated_diameter_max": 323.7613706672
        }
    },
    "is_potentially_hazardous_asteroid": false,
    "close_approach_data": [
        {
            "close_approach_date": "2020-05-24",
            "close_approach_date_full": "2020-May-24 13:52",
            "epoch_date_close_approach": 1590328320000,
            "relative_velocity": {
                "kilometers_per_second": "16.1710707868",
                "kilometers_per_hour": "58215.8548323324",
                "miles_per_hour": "36173.0682429012"
            },
            "miss_distance": {
                "astronomical": "0.2249160878",
                "lunar": "87.4923581542",
                "kilometers": "33646967.663612986",
                "miles": "20907256.2238157668"
            },
            "orbiting_body": "Earth"
        }
    ],
    "orbital_data": {
        "orbit_id": "1",
        "orbit_determination_date": "2020-05-26 12:44:07",
        "first_observation_date": "2020-05-21",
        "last_observation_date": "2020-05-26",
        "data_arc_in_days": 5,
        "observations_used": 10,
        "orbit_uncertainty": "9",
        "minimum_orbit_intersection": ".224615",
        "jupiter_tisserand_invariant": "4.274",
        "epoch_osculation": "2458992.5",
        "eccentricity": ".2000371109138289",
        "semi_major_axis": "1.544706261705245",
        "inclination": "31.94640705264137",
        "ascending_node_longitude": "243.9934523908951",
        "orbital_period": "701.240979041042",
        "perihelion_distance": "1.235707683903227",
        "perihelion_argument": "352.1217138214211",
        "aphelion_distance": "1.853704839507263",
        "perihelion_time": "2458985.581423543254",
        "mean_anomaly": "3.551828257148654",
        "mean_motion": ".5133755880785883",
        "equinox": "J2000",
        "orbit_class": {
            "orbit_class_type": "AMO",
            "orbit_class_description": "Near-Earth asteroid orbits similar to that of 1221 Amor",
            "orbit_class_range": "1.017 AU < q (perihelion) < 1.3 AU"
        }
    },
    "is_sentry_object": false
}